[{"OBJECT_NAME":"ONEWEB-0713","OBJECT_ID":"2023-004AM","EPOCH":"2026-03-02T21:54:23.634720","MEAN_MOTION":13.11417837,"ECCENTRICITY":0.00019404,"INCLINATION":87.8856,"RA_OF_ASC_NODE":42.1967,"ARG_OF_PERICENTER":72.5612,"MEAN_ANOMALY":287.5728,"EPHEMERIS_TYPE":0,"CLASSIFICATION_TYPE":"U","NORAD_CAT_ID":55175,"ELEMENT_SET_NO":999,"REV_AT_EPOCH":15189,"BSTAR":0.00021386666,"MEAN_MOTION_DOT":8.8e-7,"MEAN_MOTION_DDOT":0},{"OBJECT_NAME":"ONEWEB-0715","OBJECT_ID":"2023-004AN","EPOCH":"2026-03-02T21:47:04.021152","MEAN_MOTION":13.11417884,"ECCENTRICITY":0.00025846,"INCLINATION":87.8853,"RA_OF_ASC_NODE":42.1977,"ARG_OF_PERICENTER":85.5223,"MEAN_ANOMALY":274.62,"EPHEMERIS_TYPE":0,"CLASSIFICATION_TYPE":"U","NORAD_CAT_ID":55176,"ELEMENT_SET_NO":999,"REV_AT_EPOCH":15193,"BSTAR":-0.00038745381,"MEAN_MOTION_DOT":-1.25e-6,"MEAN_MOTION_DDOT":0},{"OBJECT_NAME":"ONEWEB-0716","OBJECT_ID":"2023-004AP","EPOCH":"2026-03-02T23:05:46.372128","MEAN_MOTION":13.17648204,"ECCENTRICITY":0.00017348,"INCLINATION":87.9137,"RA_OF_ASC_NODE":26.9623,"ARG_OF_PERICENTER":88.7857,"MEAN_ANOMALY":271.3474,"EPHEMERIS_TYPE":0,"CLASSIFICATION_TYPE":"U","NORAD_CAT_ID":55177,"ELEMENT_SET_NO":999,"REV_AT_EPOCH":15359,"BSTAR":1.3068955e-5,"MEAN_MOTION_DOT":1.8e-7,"MEAN_MOTION_DDOT":0},{"OBJECT_NAME":"ONEWEB-0717","OBJECT_ID":"2023-004AQ","EPOCH":"2026-03-02T22:41:27.674016","MEAN_MOTION":13.17648251,"ECCENTRICITY":0.00021694,"INCLINATION":87.9146,"RA_OF_ASC_NODE":26.9444,"ARG_OF_PERICENTER":63.7714,"MEAN_ANOMALY":296.364,"EPHEMERIS_TYPE":0,"CLASSIFICATION_TYPE":"U","NORAD_CAT_ID":55178,"ELEMENT_SET_NO":999,"REV_AT_EPOCH":15364,"BSTAR":-3.7443829e-5,"MEAN_MOTION_DOT":-2.0e-8,"MEAN_MOTION_DDOT":0},{"OBJECT_NAME":"ONEWEB-0719","OBJECT_ID":"2023-004AR","EPOCH":"2026-03-02T21:06:41.200992","MEAN_MOTION":13.17650833,"ECCENTRICITY":0.00016812,"INCLINATION":87.9146,"RA_OF_ASC_NODE":26.939,"ARG_OF_PERICENTER":82.4456,"MEAN_ANOMALY":277.6866,"EPHEMERIS_TYPE":0,"CLASSIFICATION_TYPE":"U","NORAD_CAT_ID":55179,"ELEMENT_SET_NO":999,"REV_AT_EPOCH":15358,"BSTAR":2.0080525e-5,"MEAN_MOTION_DOT":2.1e-7,"MEAN_MOTION_DDOT":0},{"OBJECT_NAME":"ONEWEB-0530","OBJECT_ID":"2023-029A","EPOCH":"2026-03-02T17:28:11.740224","MEAN_MOTION":13.20772411,"ECCENTRICITY":0.00015096,"INCLINATION":87.9177,"RA_OF_ASC_NODE":295.7345,"ARG_OF_PERICENTER":65.0189,"MEAN_ANOMALY":295.1101,"EPHEMERIS_TYPE":0,"CLASSIFICATION_TYPE":"U","NORAD_CAT_ID":55796,"ELEMENT_SET_NO":999,"REV_AT_EPOCH":14709,"BSTAR":0.00024165649,"MEAN_MOTION_DOT":1.11e-6,"MEAN_MOTION_DDOT":0},{"OBJECT_NAME":"ONEWEB-0534","OBJECT_ID":"2023-029B","EPOCH":"2026-03-02T17:10:01.087968","MEAN_MOTION":13.20771536,"ECCENTRICITY":0.00015231,"INCLINATION":87.9174,"RA_OF_ASC_NODE":295.736,"ARG_OF_PERICENTER":86.2965,"MEAN_ANOMALY":273.8343,"EPHEMERIS_TYPE":0,"CLASSIFICATION_TYPE":"U","NORAD_CAT_ID":55797,"ELEMENT_SET_NO":999,"REV_AT_EPOCH":14709,"BSTAR":2.6319177e-5,"MEAN_MOTION_DOT":2.4e-7,"MEAN_MOTION_DDOT":0},{"OBJECT_NAME":"ONEWEB-0556","OBJECT_ID":"2023-029C","EPOCH":"2026-03-02T17:19:06.658176","MEAN_MOTION":13.20771323,"ECCENTRICITY":6.9e-5,"INCLINATION":87.9174,"RA_OF_ASC_NODE":295.7371,"ARG_OF_PERICENTER":92.8833,"MEAN_ANOMALY":267.2379,"EPHEMERIS_TYPE":0,"CLASSIFICATION_TYPE":"U","NORAD_CAT_ID":55798,"ELEMENT_SET_NO":999,"REV_AT_EPOCH":14709,"BSTAR":-3.5377114e-5,"MEAN_MOTION_DOT":-1.0e-8,"MEAN_MOTION_DDOT":0},{"OBJECT_NAME":"ONEWEB-0562","OBJECT_ID":"2023-029D","EPOCH":"2026-03-02T17:00:55.506528","MEAN_MOTION":13.20772242,"ECCENTRICITY":0.00012083,"INCLINATION":87.9176,"RA_OF_ASC_NODE":295.7195,"ARG_OF_PERICENTER":49.7201,"MEAN_ANOMALY":310.4038,"EPHEMERIS_TYPE":0,"CLASSIFICATION_TYPE":"U","NORAD_CAT_ID":55799,"ELEMENT_SET_NO":999,"REV_AT_EPOCH":14709,"BSTAR":-2.9929958e-5,"MEAN_MOTION_DOT":1.0e-8,"MEAN_MOTION_DDOT":0},{"OBJECT_NAME":"ONEWEB-0563","OBJECT_ID":"2023-029E","EPOCH":"2026-03-02T16:51:49.968288","MEAN_MOTION":13.20771967,"ECCENTRICITY":0.00014769,"INCLINATION":87.9175,"RA_OF_ASC_NODE":295.7512,"ARG_OF_PERICENTER":90.4964,"MEAN_ANOMALY":269.6339,"EPHEMERIS_TYPE":0,"CLASSIFICATION_TYPE":"U","NORAD_CAT_ID":55800,"ELEMENT_SET_NO":999,"REV_AT_EPOCH":14708,"BSTAR":-0.00011828758,"MEAN_MOTION_DOT":-3.5e-7,"MEAN_MOTION_DDOT":0},{"OBJECT_NAME":"ONEWEB-0564","OBJECT_ID":"2023-029F","EPOCH":"2026-03-02T16:42:44.733312","MEAN_MOTION":13.20771924,"ECCENTRICITY":0.00014745,"INCLINATION":87.9173,"RA_OF_ASC_NODE":295.7248,"ARG_OF_PERICENTER":69.0163,"MEAN_ANOMALY":291.1128,"EPHEMERIS_TYPE":0,"CLASSIFICATION_TYPE":"U","NORAD_CAT_ID":55801,"ELEMENT_SET_NO":999,"REV_AT_EPOCH":14709,"BSTAR":-3.089829e-5,"MEAN_MOTION_DOT":0,"MEAN_MOTION_DDOT":0},{"OBJECT_NAME":"ONEWEB-0638","OBJECT_ID":"2023-029G","EPOCH":"2026-03-02T18:02:57.961536","MEAN_MOTION":13.14502361,"ECCENTRICITY":0.00010707,"INCLINATION":87.899,"RA_OF_ASC_NODE":310.9959,"ARG_OF_PERICENTER":73.9222,"MEAN_ANOMALY":286.2026,"EPHEMERIS_TYPE":0,"CLASSIFICATION_TYPE":"U","NORAD_CAT_ID":55802,"ELEMENT_SET_NO":999,"REV_AT_EPOCH":14541,"BSTAR":0.00080116065,"MEAN_MOTION_DOT":3.1e-6,"MEAN_MOTION_DDOT":0},{"OBJECT_NAME":"ONEWEB-0639","OBJECT_ID":"2023-029H","EPOCH":"2026-03-02T17:40:56.349984","MEAN_MOTION":13.19726703,"ECCENTRICITY":0.00020538,"INCLINATION":87.9239,"RA_OF_ASC_NODE":326.183,"ARG_OF_PERICENTER":111.4002,"MEAN_ANOMALY":248.735,"EPHEMERIS_TYPE":0,"CLASSIFICATION_TYPE":"U","NORAD_CAT_ID":55803,"ELEMENT_SET_NO":999,"REV_AT_EPOCH":14486,"BSTAR":8.1019202e-5,"MEAN_MOTION_DOT":4.5e-7,"MEAN_MOTION_DDOT":0},{"OBJECT_NAME":"ONEWEB-0640","OBJECT_ID":"2023-029J","EPOCH":"2026-03-02T16:27:02.158560","MEAN_MOTION":13.14501504,"ECCENTRICITY":9.573e-5,"INCLINATION":87.8994,"RA_OF_ASC_NODE":310.9997,"ARG_OF_PERICENTER":95.5853,"MEAN_ANOMALY":264.5386,"EPHEMERIS_TYPE":0,"CLASSIFICATION_TYPE":"U","NORAD_CAT_ID":55804,"ELEMENT_SET_NO":999,"REV_AT_EPOCH":14542,"BSTAR":0.00066004005,"MEAN_MOTION_DOT":2.57e-6,"MEAN_MOTION_DDOT":0},{"OBJECT_NAME":"ONEWEB-0641","OBJECT_ID":"2023-029K","EPOCH":"2026-03-02T17:34:07.147488","MEAN_MOTION":13.19725878,"ECCENTRICITY":0.00017692,"INCLINATION":87.9244,"RA_OF_ASC_NODE":326.1703,"ARG_OF_PERICENTER":84.7493,"MEAN_ANOMALY":275.3841,"EPHEMERIS_TYPE":0,"CLASSIFICATION_TYPE":"U","NORAD_CAT_ID":55805,"ELEMENT_SET_NO":999,"REV_AT_EPOCH":14487,"BSTAR":0.00018711815,"MEAN_MOTION_DOT":8.8e-7,"MEAN_MOTION_DDOT":0},{"OBJECT_NAME":"ONEWEB-0642","OBJECT_ID":"2023-029L","EPOCH":"2026-03-02T17:27:17.887104","MEAN_MOTION":13.1972619,"ECCENTRICITY":0.00021608,"INCLINATION":87.9239,"RA_OF_ASC_NODE":326.1863,"ARG_OF_PERICENTER":101.5939,"MEAN_ANOMALY":258.5437,"EPHEMERIS_TYPE":0,"CLASSIFICATION_TYPE":"U","NORAD_CAT_ID":55806,"ELEMENT_SET_NO":999,"REV_AT_EPOCH":14486,"BSTAR":5.131495e-5,"MEAN_MOTION_DOT":3.3e-7,"MEAN_MOTION_DDOT":0},{"OBJECT_NAME":"ONEWEB-0643","OBJECT_ID":"2023-029M","EPOCH":"2026-03-02T17:33:16.015968","MEAN_MOTION":13.14502076,"ECCENTRICITY":0.00021701,"INCLINATION":87.899,"RA_OF_ASC_NODE":310.9773,"ARG_OF_PERICENTER":95.0987,"MEAN_ANOMALY":265.0391,"EPHEMERIS_TYPE":0,"CLASSIFICATION_TYPE":"U","NORAD_CAT_ID":55807,"ELEMENT_SET_NO":999,"REV_AT_EPOCH":14540,"BSTAR":1.2901382e-5,"MEAN_MOTION_DOT":1.8e-7,"MEAN_MOTION_DDOT":0}]
