ONEWEB-0713             
1 55175U 23004AM  26061.91277355  .00000088  00000+0  21387-3 0  9995
2 55175  87.8856  42.1967 0001940  72.5612 287.5728 13.11417837151892
ONEWEB-0715             
1 55176U 23004AN  26061.90768543 -.00000125  00000+0 -38745-3 0  9999
2 55176  87.8853  42.1977 0002584  85.5223 274.6200 13.11417884151937
ONEWEB-0716             
1 55177U 23004AP  26061.96234227  .00000018  00000+0  13069-4 0  9995
2 55177  87.9137  26.9623 0001734  88.7857 271.3474 13.17648204153595
ONEWEB-0717             
1 55178U 23004AQ  26061.94545919 -.00000002  00000+0 -37444-4 0  9995
2 55178  87.9146  26.9444 0002169  63.7714 296.3640 13.17648251153645
ONEWEB-0719             
1 55179U 23004AR  26061.87964353  .00000021  00000+0  20081-4 0  9993
2 55179  87.9146  26.9390 0001681  82.4456 277.6866 13.17650833153589
ONEWEB-0530             
1 55796U 23029A   26061.72791366  .00000111  00000+0  24166-3 0  9998
2 55796  87.9177 295.7345 0001509  65.0189 295.1101 13.20772411147090
ONEWEB-0534             
1 55797U 23029B   26061.71529037  .00000024  00000+0  26319-4 0  9998
2 55797  87.9174 295.7360 0001523  86.2965 273.8343 13.20771536147096
ONEWEB-0556             
1 55798U 23029C   26061.72160484 -.00000001  00000+0 -35377-4 0  9998
2 55798  87.9174 295.7371 0000690  92.8833 267.2379 13.20771323147090
ONEWEB-0562             
1 55799U 23029D   26061.70897577  .00000001  00000+0 -29930-4 0  9994
2 55799  87.9176 295.7195 0001208  49.7201 310.4038 13.20772242147097
ONEWEB-0563             
1 55800U 23029E   26061.70266167 -.00000035  00000+0 -11829-3 0  9997
2 55800  87.9175 295.7512 0001476  90.4964 269.6339 13.20771967147089
ONEWEB-0564             
1 55801U 23029F   26061.69635108  .00000000  00000+0 -30898-4 0  9990
2 55801  87.9173 295.7248 0001474  69.0163 291.1128 13.20771924147095
ONEWEB-0638             
1 55802U 23029G   26061.75205974  .00000310  00000+0  80116-3 0  9992
2 55802  87.8990 310.9959 0001070  73.9222 286.2026 13.14502361145419
ONEWEB-0639             
1 55803U 23029H   26061.73676331  .00000045  00000+0  81019-4 0  9999
2 55803  87.9239 326.1830 0002053 111.4002 248.7350 13.19726703144864
ONEWEB-0640             
1 55804U 23029J   26061.68544165  .00000257  00000+0  66004-3 0  9994
2 55804  87.8994 310.9997 0000957  95.5853 264.5386 13.14501504145427
ONEWEB-0641             
1 55805U 23029K   26061.73202717  .00000088  00000+0  18712-3 0  9990
2 55805  87.9244 326.1703 0001769  84.7493 275.3841 13.19725878144874
ONEWEB-0642             
1 55806U 23029L   26061.72729036  .00000033  00000+0  51315-4 0  9995
2 55806  87.9239 326.1863 0002160 101.5939 258.5437 13.19726190144866
ONEWEB-0643             
1 55807U 23029M   26061.73143537  .00000018  00000+0  12901-4 0  9994
2 55807  87.8990 310.9773 0002170  95.0987 265.0391 13.14502076145405
